"Name","Label","Confidence","UserID","City","Country","Latitude","Longitude","Category"
"00ce768a8138c780.jpg","Road",98.256294250488,1,"Drumcondra","Ireland",-8.445614,51.8885086,"Adventure"
"00ce768a8138c780.jpg","Highway",96.555976867676,1,"Drumcondra","Ireland",-8.445614,51.8885086,"Adventure"
"00ce768a8138c780.jpg","Freeway",96.555976867676,1,"Drumcondra","Ireland",-8.445614,51.8885086,"Adventure"
"00ce768a8138c780.jpg","Bus",89.638458251953,1,"Drumcondra","Ireland",-8.445614,51.8885086,"Adventure"
"00ce768a8138c780.jpg","Vehicle",89.638458251953,1,"Drumcondra","Ireland",-8.445614,51.8885086,"Adventure"
"00ce768a8138c780.jpg","Transportation",89.638458251953,1,"Drumcondra","Ireland",-8.445614,51.8885086,"Adventure"
"00ce768a8138c780.jpg","Asphalt",78.774452209473,1,"Drumcondra","Ireland",-8.445614,51.8885086,"none"
"00ce768a8138c780.jpg","Tarmac",78.774452209473,1,"Drumcondra","Ireland",-8.445614,51.8885086,"Architecture"
"00cec5b9044323ca.jpg","Ocean",99.991325378418,1,"London","United Kingdom",-0.0829051,51.5116933,"Beach"
"00cec5b9044323ca.jpg","Water",99.991325378418,1,"London","United Kingdom",-0.0829051,51.5116933,"Beach"
"00cec5b9044323ca.jpg","Sea",99.991325378418,1,"London","United Kingdom",-0.0829051,51.5116933,"Beach"
"00cec5b9044323ca.jpg","Outdoors",99.991325378418,1,"London","United Kingdom",-0.0829051,51.5116933,"Nature"
"00cec5b9044323ca.jpg","Nature",99.991325378418,1,"London","United Kingdom",-0.0829051,51.5116933,"Nature"
"00cec5b9044323ca.jpg","Person",99.448387145996,1,"London","United Kingdom",-0.0829051,51.5116933,"none"
"00cec5b9044323ca.jpg","Human",99.448387145996,1,"London","United Kingdom",-0.0829051,51.5116933,"none"
"00cec5b9044323ca.jpg","Sea Waves",98.422943115234,1,"London","United Kingdom",-0.0829051,51.5116933,"Beach"
"00cec5b9044323ca.jpg","Sport",71.803443908691,1,"London","United Kingdom",-0.0829051,51.5116933,"Adventure"
"00cec5b9044323ca.jpg","Sports",71.803443908691,1,"London","United Kingdom",-0.0829051,51.5116933,"Adventure"
"00cf98476d5c76a4.jpg","Nature",99.098182678223,1,"Coolock","Ireland",-6.1920933,53.3916434,"Nature"
"00cf98476d5c76a4.jpg","Outdoors",99.098182678223,1,"Coolock","Ireland",-6.1920933,53.3916434,"Nature"
"00cf98476d5c76a4.jpg","Wilderness",99.098182678223,1,"Coolock","Ireland",-6.1920933,53.3916434,"Nature"
"00cf98476d5c76a4.jpg","Clothing",99.022895812988,1,"Coolock","Ireland",-6.1920933,53.3916434,"Clothing"
"00cf98476d5c76a4.jpg","Vegetation",98.413284301758,1,"Coolock","Ireland",-6.1920933,53.3916434,"Food"
"00cf98476d5c76a4.jpg","Bush",98.413284301758,1,"Coolock","Ireland",-6.1920933,53.3916434,"Nature"
"00cf98476d5c76a4.jpg","Pants",97.587829589844,1,"Coolock","Ireland",-6.1920933,53.3916434,"Clothing"
"00cf98476d5c76a4.jpg","Person",96.634002685547,1,"Coolock","Ireland",-6.1920933,53.3916434,"none"
"00cf98476d5c76a4.jpg","Ground",96.06657409668,1,"Coolock","Ireland",-6.1920933,53.3916434,"none"
"00cf98476d5c76a4.jpg","Rock",87.366737365723,1,"Coolock","Ireland",-6.1920933,53.3916434,"Nature"
"00b2493f0d5b8501.jpg","Nature",99.400054931641,1,"Watergrasshill","Ireland",-8.337871,52.0097259,"Nature"
"00b2493f0d5b8501.jpg","Outdoors",99.15763092041,1,"Watergrasshill","Ireland",-8.337871,52.0097259,"Nature"
"00b2493f0d5b8501.jpg","Vegetation",98.107879638672,1,"Watergrasshill","Ireland",-8.337871,52.0097259,"Food"
"00b2493f0d5b8501.jpg","Weather",96.258522033691,1,"Watergrasshill","Ireland",-8.337871,52.0097259,"Nature"
"00b2493f0d5b8501.jpg","Bush",94.747505187988,1,"Watergrasshill","Ireland",-8.337871,52.0097259,"Nature"
"00b2493f0d5b8501.jpg","Cloud",94.267196655273,1,"Watergrasshill","Ireland",-8.337871,52.0097259,"Nature"
"00b2493f0d5b8501.jpg","Sky",94.267196655273,1,"Watergrasshill","Ireland",-8.337871,52.0097259,"Nature"
"00b2493f0d5b8501.jpg","Landscape",93.087760925293,1,"Watergrasshill","Ireland",-8.337871,52.0097259,"Nature"
"00b2493f0d5b8501.jpg","Cumulus",90.201583862305,1,"Watergrasshill","Ireland",-8.337871,52.0097259,"none"
"00b2493f0d5b8501.jpg","Scenery",89.000434875488,1,"Watergrasshill","Ireland",-8.337871,52.0097259,"Nature"
"00a44dc6f7b7e8da.jpg","Sculpture",96.816276550293,1,"Cherryville","Ireland",-7.1111732,52.2513095,"Architecture"
"00a44dc6f7b7e8da.jpg","Art",96.816276550293,1,"Cherryville","Ireland",-7.1111732,52.2513095,"Architecture"
"00a44dc6f7b7e8da.jpg","Archaeology",96.328063964844,1,"Cherryville","Ireland",-7.1111732,52.2513095,"Architecture"
"00a44dc6f7b7e8da.jpg","Statue",95.308280944824,1,"Cherryville","Ireland",-7.1111732,52.2513095,"Architecture"
"00a44dc6f7b7e8da.jpg","Person",93.582359313965,1,"Cherryville","Ireland",-7.1111732,52.2513095,"none"
"00a44dc6f7b7e8da.jpg","Human",93.582359313965,1,"Cherryville","Ireland",-7.1111732,52.2513095,"none"
"00a44dc6f7b7e8da.jpg","Architecture",76.627571105957,1,"Cherryville","Ireland",-7.1111732,52.2513095,"Architecture"
"00a44dc6f7b7e8da.jpg","Building",76.627571105957,1,"Cherryville","Ireland",-7.1111732,52.2513095,"Architecture"
"00a7e701513637f3.jpg","Wheel",99.312515258789,1,"Milton","United Kingdom",-0.934063,53.248446,"Adventure"
"00a7e701513637f3.jpg","Machine",99.312515258789,1,"Milton","United Kingdom",-0.934063,53.248446,"none"
"00a7e701513637f3.jpg","Transportation",97.609397888184,1,"Milton","United Kingdom",-0.934063,53.248446,"Adventure"
"00a7e701513637f3.jpg","Vehicle",97.609397888184,1,"Milton","United Kingdom",-0.934063,53.248446,"Adventure"
"00a7e701513637f3.jpg","Bike",97.609397888184,1,"Milton","United Kingdom",-0.934063,53.248446,"Adventure"
"00a7e701513637f3.jpg","Bicycle",97.609397888184,1,"Milton","United Kingdom",-0.934063,53.248446,"Adventure"
"00a7e701513637f3.jpg","Outdoors",72.79451751709,1,"Milton","United Kingdom",-0.934063,53.248446,"Nature"
"00a7e701513637f3.jpg","Nature",71.603332519531,1,"Milton","United Kingdom",-0.934063,53.248446,"Nature"
"0000d67245642c5f.jpg","Building",98.036094665527,1,"Blarney","Ireland",-8.8562835,53.510243,"Architecture"
"0000d67245642c5f.jpg","Architecture",98.036094665527,1,"Blarney","Ireland",-8.8562835,53.510243,"Architecture"
"0000d67245642c5f.jpg","Slope",93.665908813477,1,"Blarney","Ireland",-8.8562835,53.510243,"none"
"0000d67245642c5f.jpg","Pyramid",72.797348022461,1,"Blarney","Ireland",-8.8562835,53.510243,"Adventure"
"00cca80fa3aa5b1b.jpg","Airport",99.591682434082,1,"Boyle","Ireland",-8.2969737,53.9735591,"Adventure"
"00cca80fa3aa5b1b.jpg","Vehicle",99.489112854004,1,"Boyle","Ireland",-8.2969737,53.9735591,"Adventure"
"00cca80fa3aa5b1b.jpg","Transportation",99.489112854004,1,"Boyle","Ireland",-8.2969737,53.9735591,"Adventure"
"00cca80fa3aa5b1b.jpg","Aircraft",99.489112854004,1,"Boyle","Ireland",-8.2969737,53.9735591,"Adventure"
"00cca80fa3aa5b1b.jpg","Airplane",99.489112854004,1,"Boyle","Ireland",-8.2969737,53.9735591,"Adventure"
"00cca80fa3aa5b1b.jpg","Airfield",95.906829833984,1,"Boyle","Ireland",-8.2969737,53.9735591,"Adventure"
"00cca80fa3aa5b1b.jpg","Outdoors",82.85750579834,1,"Boyle","Ireland",-8.2969737,53.9735591,"Nature"
"00cca80fa3aa5b1b.jpg","Nature",81.670227050781,1,"Boyle","Ireland",-8.2969737,53.9735591,"Nature"
"00cb389da529ba46.jpg","Person",99.736099243164,1,"Confey","Ireland",-6.5028415,53.3806398,"none"
"00cb389da529ba46.jpg","Tire",99.130187988281,1,"Confey","Ireland",-6.5028415,53.3806398,"Adventure"
"00cb389da529ba46.jpg","Car",98.754119873047,1,"Confey","Ireland",-6.5028415,53.3806398,"Adventure"
"00cb389da529ba46.jpg","Wheel",96.072982788086,1,"Confey","Ireland",-6.5028415,53.3806398,"Adventure"
"00cb389da529ba46.jpg","Alloy Wheel",96.072982788086,1,"Confey","Ireland",-6.5028415,53.3806398,"none"
"00cb389da529ba46.jpg","Spoke",96.072982788086,1,"Confey","Ireland",-6.5028415,53.3806398,"none"
"00cb389da529ba46.jpg","Machine",96.072982788086,1,"Confey","Ireland",-6.5028415,53.3806398,"none"
"00cb389da529ba46.jpg","Car Wheel",92.58309173584,1,"Confey","Ireland",-6.5028415,53.3806398,"Adventure"
"00cb389da529ba46.jpg","Sports Car",89.901100158691,1,"Confey","Ireland",-6.5028415,53.3806398,"Adventure"
"00cb389da529ba46.jpg","Coupe",89.714973449707,1,"Confey","Ireland",-6.5028415,53.3806398,"none"
"00ae9e06200fd476.jpg","Grass",99.99031829834,1,"Ballivor","Ireland",-6.1191333,53.1915379,"Food"
"00ae9e06200fd476.jpg","Plant",99.99031829834,1,"Ballivor","Ireland",-6.1191333,53.1915379,"Nature"
"00ae9e06200fd476.jpg","Lawn",96.779579162598,1,"Ballivor","Ireland",-6.1191333,53.1915379,"Nature"
"00ae9e06200fd476.jpg","Housing",94.166938781738,1,"Ballivor","Ireland",-6.1191333,53.1915379,"Architecture"
"00ae9e06200fd476.jpg","Building",94.166938781738,1,"Ballivor","Ireland",-6.1191333,53.1915379,"Architecture"
"00ae9e06200fd476.jpg","House",87.092216491699,1,"Ballivor","Ireland",-6.1191333,53.1915379,"Architecture"
"00ae9e06200fd476.jpg","Mansion",87.092216491699,1,"Ballivor","Ireland",-6.1191333,53.1915379,"Architecture"
"00ae9e06200fd476.jpg","Villa",80.547782897949,1,"Ballivor","Ireland",-6.1191333,53.1915379,"Architecture"
"00ae9e06200fd476.jpg","Tree",76.74861907959,1,"Ballivor","Ireland",-6.1191333,53.1915379,"Nature"
"00ae9e06200fd476.jpg","Vegetation",72.26732635498,1,"Ballivor","Ireland",-6.1191333,53.1915379,"Food"
"00af791d51628542.jpg","Bicycle",99.958511352539,1,"Confey","Ireland",-6.5028415,53.3806398,"Adventure"
"00af791d51628542.jpg","Vehicle",99.958511352539,1,"Confey","Ireland",-6.5028415,53.3806398,"Adventure"
"00af791d51628542.jpg","Transportation",99.958511352539,1,"Confey","Ireland",-6.5028415,53.3806398,"Adventure"
"00af791d51628542.jpg","Wheel",99.88907623291,1,"Confey","Ireland",-6.5028415,53.3806398,"Adventure"
"00af791d51628542.jpg","Machine",99.88907623291,1,"Confey","Ireland",-6.5028415,53.3806398,"none"
"00af791d51628542.jpg","Person",99.837265014648,1,"Confey","Ireland",-6.5028415,53.3806398,"none"
"00af791d51628542.jpg","Helmet",99.483200073242,1,"Confey","Ireland",-6.5028415,53.3806398,"Adventure"
"00af791d51628542.jpg","Clothing",99.483200073242,1,"Confey","Ireland",-6.5028415,53.3806398,"Clothing"
"00af791d51628542.jpg","Cyclist",88.673530578613,1,"Confey","Ireland",-6.5028415,53.3806398,"Adventure"
"00af791d51628542.jpg","Sport",88.673530578613,1,"Confey","Ireland",-6.5028415,53.3806398,"Adventure"
"00a0c5ea5b4f3989.jpg","Automobile",98.054573059082,1,"Norton","United Kingdom",-1.4631269,53.3326454,"Adventure"
"00a0c5ea5b4f3989.jpg","Vehicle",98.054573059082,1,"Norton","United Kingdom",-1.4631269,53.3326454,"Adventure"
"00a0c5ea5b4f3989.jpg","Car",98.054573059082,1,"Norton","United Kingdom",-1.4631269,53.3326454,"Adventure"
"00a0c5ea5b4f3989.jpg","Transportation",98.054573059082,1,"Norton","United Kingdom",-1.4631269,53.3326454,"Adventure"
"00a0c5ea5b4f3989.jpg","Road",91.956909179688,1,"Norton","United Kingdom",-1.4631269,53.3326454,"Adventure"
"00a0c5ea5b4f3989.jpg","Power Lines",89.689949035645,1,"Norton","United Kingdom",-1.4631269,53.3326454,"none"
"00a0c5ea5b4f3989.jpg","Cable",89.689949035645,1,"Norton","United Kingdom",-1.4631269,53.3326454,"none"
"00a0c5ea5b4f3989.jpg","Intersection",88.475448608398,1,"Norton","United Kingdom",-1.4631269,53.3326454,"none"
"00a0c5ea5b4f3989.jpg","Electric Transmission Tower",87.486022949219,1,"Norton","United Kingdom",-1.4631269,53.3326454,"none"
"00a0c5ea5b4f3989.jpg","Urban",75.237281799316,1,"Norton","United Kingdom",-1.4631269,53.3326454,"Architecture"
"000a017e2b7063a7.jpg","Vehicle",99.545150756836,1,"Moville","Ireland",-8.4242597,51.8910459,"Adventure"
"000a017e2b7063a7.jpg","Aircraft",99.545150756836,1,"Moville","Ireland",-8.4242597,51.8910459,"Adventure"
"000a017e2b7063a7.jpg","Airplane",99.545150756836,1,"Moville","Ireland",-8.4242597,51.8910459,"Adventure"
"000a017e2b7063a7.jpg","Transportation",99.545150756836,1,"Moville","Ireland",-8.4242597,51.8910459,"Adventure"
"000a017e2b7063a7.jpg","Jet",95.244903564453,1,"Moville","Ireland",-8.4242597,51.8910459,"Adventure"
"000a017e2b7063a7.jpg","Airliner",82.993766784668,1,"Moville","Ireland",-8.4242597,51.8910459,"Adventure"
"000a017e2b7063a7.jpg","Flight",80.838928222656,1,"Moville","Ireland",-8.4242597,51.8910459,"Adventure"
"000a017e2b7063a7.jpg","Warplane",77.565055847168,1,"Moville","Ireland",-8.4242597,51.8910459,"Adventure"
"00b4f59578b53599.jpg","Plant",99.944175720215,1,"Hatton","United Kingdom",-1.6462357,52.300713,"Nature"
"00b4f59578b53599.jpg","Flower",99.944175720215,1,"Hatton","United Kingdom",-1.6462357,52.300713,"Nature"
"00b4f59578b53599.jpg","Rose",99.944175720215,1,"Hatton","United Kingdom",-1.6462357,52.300713,"Nature"
"00b4f59578b53599.jpg","Blossom",99.944175720215,1,"Hatton","United Kingdom",-1.6462357,52.300713,"Nature"
"000fbd342baaadd3.jpg","Ruins",99.048164367676,1,"Old Kilcullen","Ireland",-6.7449927,53.1310185,"Nature"
"0a5b90cee67825ab.jpg","Transportation",99.980941772461,2,"Aston","United Kingdom",-2.569913,52.684744,"Adventure"
"0a5b90cee67825ab.jpg","Boat",99.980941772461,2,"Aston","United Kingdom",-2.569913,52.684744,"Beach"
"0a5b90cee67825ab.jpg","Vehicle",99.980941772461,2,"Aston","United Kingdom",-2.569913,52.684744,"Adventure"
"0a5b90cee67825ab.jpg","Vessel",99.900756835938,2,"Aston","United Kingdom",-2.569913,52.684744,"Food"
"0a5b90cee67825ab.jpg","Watercraft",99.900756835938,2,"Aston","United Kingdom",-2.569913,52.684744,"none"
"0a5b90cee67825ab.jpg","Water",87.628433227539,2,"Aston","United Kingdom",-2.569913,52.684744,"Beach"
"0a5b90cee67825ab.jpg","Sailboat",83.571990966797,2,"Aston","United Kingdom",-2.569913,52.684744,"none"
"0a5b90cee67825ab.jpg","Waterfront",79.072257995605,2,"Aston","United Kingdom",-2.569913,52.684744,"none"
"00b82a370e0157c5.jpg","Plant",99.621681213379,2,"Mallow","Ireland",-8.642661,52.1361219,"Nature"
"00b82a370e0157c5.jpg","Food",90.571128845215,2,"Mallow","Ireland",-8.642661,52.1361219,"Food"
"00b82a370e0157c5.jpg","Fruit",90.571128845215,2,"Mallow","Ireland",-8.642661,52.1361219,"Food"
"00b82a370e0157c5.jpg","Cherry",85.302841186523,2,"Mallow","Ireland",-8.642661,52.1361219,"Food"
"00b82a370e0157c5.jpg","Flower",70.046966552734,2,"Mallow","Ireland",-8.642661,52.1361219,"Nature"
"00b82a370e0157c5.jpg","Blossom",70.046966552734,2,"Mallow","Ireland",-8.642661,52.1361219,"Nature"
"00e194d3c0fd8930.jpg","Ground",99.863967895508,2,"Sutton","United Kingdom",1.3443099,51.195454,"none"
"00e194d3c0fd8930.jpg","Plant",99.560928344727,2,"Sutton","United Kingdom",1.3443099,51.195454,"Nature"
"00e194d3c0fd8930.jpg","Flower",96.633399963379,2,"Sutton","United Kingdom",1.3443099,51.195454,"Nature"
"00e194d3c0fd8930.jpg","Soil",96.216537475586,2,"Sutton","United Kingdom",1.3443099,51.195454,"Nature"
"00e194d3c0fd8930.jpg","Bird",94.408424377441,2,"Sutton","United Kingdom",1.3443099,51.195454,"Nature"
"00e194d3c0fd8930.jpg","Animal",94.408424377441,2,"Sutton","United Kingdom",1.3443099,51.195454,"Nature"
"00e194d3c0fd8930.jpg","Road",92.922698974609,2,"Sutton","United Kingdom",1.3443099,51.195454,"Adventure"
"00e194d3c0fd8930.jpg","Gravel",79.003723144531,2,"Sutton","United Kingdom",1.3443099,51.195454,"none"
"00e194d3c0fd8930.jpg","Invertebrate",76.758186340332,2,"Sutton","United Kingdom",1.3443099,51.195454,"none"
"00e194d3c0fd8930.jpg","Honey Bee",76.758186340332,2,"Sutton","United Kingdom",1.3443099,51.195454,"none"
"0a6b1ead3def6ed8.jpg","Sunlight",99.855026245117,2,"Killorglin","Ireland",-9.7850991,52.1058991,"none"
"0a6b1ead3def6ed8.jpg","Light",99.797019958496,2,"Killorglin","Ireland",-9.7850991,52.1058991,"Architecture"
"0a6b1ead3def6ed8.jpg","Flare",99.797019958496,2,"Killorglin","Ireland",-9.7850991,52.1058991,"none"
"0a6b1ead3def6ed8.jpg","Nature",98.793869018555,2,"Killorglin","Ireland",-9.7850991,52.1058991,"Nature"
"0a6b1ead3def6ed8.jpg","Outdoors",98.621047973633,2,"Killorglin","Ireland",-9.7850991,52.1058991,"Nature"
"0a6b1ead3def6ed8.jpg","Sky",93.167449951172,2,"Killorglin","Ireland",-9.7850991,52.1058991,"Nature"
"0a6b1ead3def6ed8.jpg","Sunset",85.289497375488,2,"Killorglin","Ireland",-9.7850991,52.1058991,"Nature"
"0a6b1ead3def6ed8.jpg","Dusk",85.289497375488,2,"Killorglin","Ireland",-9.7850991,52.1058991,"Nature"
"0a6b1ead3def6ed8.jpg","Red Sky",85.289497375488,2,"Killorglin","Ireland",-9.7850991,52.1058991,"Nature"
"0a6b1ead3def6ed8.jpg","Sunrise",84.414558410645,2,"Killorglin","Ireland",-9.7850991,52.1058991,"Nature"
"0a4bcc3cc7630547.jpg","Plant",99.761039733887,2,"Whitwell","United Kingdom",-1.555363,54.3886617,"Nature"
"0a4bcc3cc7630547.jpg","Tree",99.761039733887,2,"Whitwell","United Kingdom",-1.555363,54.3886617,"Nature"
"0a4bcc3cc7630547.jpg","Nature",95.39965057373,2,"Whitwell","United Kingdom",-1.555363,54.3886617,"Nature"
"0a4bcc3cc7630547.jpg","Outdoors",94.97688293457,2,"Whitwell","United Kingdom",-1.555363,54.3886617,"Nature"
"0a4bcc3cc7630547.jpg","Grass",85.591751098633,2,"Whitwell","United Kingdom",-1.555363,54.3886617,"Food"
"0a4bcc3cc7630547.jpg","Yard",84.749687194824,2,"Whitwell","United Kingdom",-1.555363,54.3886617,"Nature"
"0a4bcc3cc7630547.jpg","Field",76.496086120605,2,"Whitwell","United Kingdom",-1.555363,54.3886617,"Nature"
"0a4bcc3cc7630547.jpg","Grassland",70.282890319824,2,"Whitwell","United Kingdom",-1.555363,54.3886617,"Nature"
"000f18da4c446aab.jpg","Vegetation",99.999931335449,2,"Skerries","Ireland",-6.1349155,53.5834008,"Food"
"000f18da4c446aab.jpg","Plant",99.999931335449,2,"Skerries","Ireland",-6.1349155,53.5834008,"Nature"
"000f18da4c446aab.jpg","Outdoors",99.974113464355,2,"Skerries","Ireland",-6.1349155,53.5834008,"Nature"
"000f18da4c446aab.jpg","Tree",99.974113464355,2,"Skerries","Ireland",-6.1349155,53.5834008,"Nature"
"000f18da4c446aab.jpg","Woodland",99.974113464355,2,"Skerries","Ireland",-6.1349155,53.5834008,"none"
"000f18da4c446aab.jpg","Land",99.974113464355,2,"Skerries","Ireland",-6.1349155,53.5834008,"Nature"
"000f18da4c446aab.jpg","Nature",99.974113464355,2,"Skerries","Ireland",-6.1349155,53.5834008,"Nature"
"000f18da4c446aab.jpg","Rainforest",99.906135559082,2,"Skerries","Ireland",-6.1349155,53.5834008,"none"
"000f18da4c446aab.jpg","Jungle",99.526412963867,2,"Skerries","Ireland",-6.1349155,53.5834008,"none"
"000f18da4c446aab.jpg","Grove",99.110084533691,2,"Skerries","Ireland",-6.1349155,53.5834008,"none"
"00b2ee921120d1a0.jpg","Wildlife",96.789405822754,2,"Balally","Ireland",-6.5899765,52.176031,"Nature"
"00b2ee921120d1a0.jpg","Deer",96.789405822754,2,"Balally","Ireland",-6.5899765,52.176031,"none"
"00b2ee921120d1a0.jpg","Elk",96.789405822754,2,"Balally","Ireland",-6.5899765,52.176031,"none"
"00b2ee921120d1a0.jpg","Animal",96.789405822754,2,"Balally","Ireland",-6.5899765,52.176031,"Nature"
"00b2ee921120d1a0.jpg","Mammal",96.789405822754,2,"Balally","Ireland",-6.5899765,52.176031,"none"
"00b2ee921120d1a0.jpg","Cow",90.981491088867,2,"Balally","Ireland",-6.5899765,52.176031,"none"
"00b2ee921120d1a0.jpg","Cattle",90.981491088867,2,"Balally","Ireland",-6.5899765,52.176031,"none"
"00b2ee921120d1a0.jpg","Moose",90.60782623291,2,"Balally","Ireland",-6.5899765,52.176031,"none"
"00b2ee921120d1a0.jpg","Horse",76.191558837891,2,"Balally","Ireland",-6.5899765,52.176031,"none"
"00dbd5dff10261ab.jpg","Mammal",98.403602600098,2,"Sheffield","United Kingdom",-1.7622544,53.3992318,"none"
"00dbd5dff10261ab.jpg","Pet",98.403602600098,2,"Sheffield","United Kingdom",-1.7622544,53.3992318,"none"
"00dbd5dff10261ab.jpg","Dog",98.403602600098,2,"Sheffield","United Kingdom",-1.7622544,53.3992318,"none"
"00dbd5dff10261ab.jpg","Animal",98.403602600098,2,"Sheffield","United Kingdom",-1.7622544,53.3992318,"Nature"
"00dbd5dff10261ab.jpg","Canine",98.403602600098,2,"Sheffield","United Kingdom",-1.7622544,53.3992318,"none"
"00dbd5dff10261ab.jpg","Puppy",86.451751708984,2,"Sheffield","United Kingdom",-1.7622544,53.3992318,"none"
"00dbd5dff10261ab.jpg","Cocker Spaniel",86.447883605957,2,"Sheffield","United Kingdom",-1.7622544,53.3992318,"none"
"00dbd5dff10261ab.jpg","Spaniel",86.447883605957,2,"Sheffield","United Kingdom",-1.7622544,53.3992318,"none"
"00b1907ffd004851.jpg","Poultry",99.969848632812,2,"Upton","United Kingdom",-0.7009333,53.3723602,"Food"
"00b1907ffd004851.jpg","Chicken",99.969848632812,2,"Upton","United Kingdom",-0.7009333,53.3723602,"Food"
"00b1907ffd004851.jpg","Animal",99.969848632812,2,"Upton","United Kingdom",-0.7009333,53.3723602,"Nature"
"00b1907ffd004851.jpg","Bird",99.969848632812,2,"Upton","United Kingdom",-0.7009333,53.3723602,"Nature"
"00b1907ffd004851.jpg","Fowl",99.969848632812,2,"Upton","United Kingdom",-0.7009333,53.3723602,"none"
"00b1907ffd004851.jpg","Pheasant",92.827423095703,2,"Upton","United Kingdom",-0.7009333,53.3723602,"none"
"0a9e166c53077966.jpg","Plant",99.714958190918,2,"Birr","Ireland",-7.9139891,53.0949398,"Nature"
"0a9e166c53077966.jpg","Grass",99.672584533691,2,"Birr","Ireland",-7.9139891,53.0949398,"Food"
"0a9e166c53077966.jpg","Tree",97.58797454834,2,"Birr","Ireland",-7.9139891,53.0949398,"Nature"
"0a9e166c53077966.jpg","Lawn",78.943908691406,2,"Birr","Ireland",-7.9139891,53.0949398,"Nature"
"0a9e166c53077966.jpg","Agropyron",77.729362487793,2,"Birr","Ireland",-7.9139891,53.0949398,"none"
"00ba61f8cfacadd4.jpg","Geranium",99.997863769531,2,"Castlebellingham","Ireland",-6.391149,53.8996586,"none"
"00ba61f8cfacadd4.jpg","Flower",99.997863769531,2,"Castlebellingham","Ireland",-6.391149,53.8996586,"Nature"
"00ba61f8cfacadd4.jpg","Plant",99.997863769531,2,"Castlebellingham","Ireland",-6.391149,53.8996586,"Nature"
"00ba61f8cfacadd4.jpg","Blossom",99.997863769531,2,"Castlebellingham","Ireland",-6.391149,53.8996586,"Nature"
"0a23df4b6f448339.jpg","Building",99.757949829102,2,"Ballybofey","Ireland",-7.74208,54.70972,"Architecture"
"0a23df4b6f448339.jpg","City",99.757949829102,2,"Ballybofey","Ireland",-7.74208,54.70972,"Architecture"
"0a23df4b6f448339.jpg","High Rise",99.757949829102,2,"Ballybofey","Ireland",-7.74208,54.70972,"none"
"0a23df4b6f448339.jpg","Urban",99.757949829102,2,"Ballybofey","Ireland",-7.74208,54.70972,"Architecture"
"0a23df4b6f448339.jpg","Metropolis",99.469383239746,2,"Ballybofey","Ireland",-7.74208,54.70972,"Architecture"
"0a23df4b6f448339.jpg","Architecture",95.430709838867,2,"Ballybofey","Ireland",-7.74208,54.70972,"Architecture"
"0a23df4b6f448339.jpg","Office Building",93.572998046875,2,"Ballybofey","Ireland",-7.74208,54.70972,"Architecture"
"0a23df4b6f448339.jpg","Spire",88.227188110352,2,"Ballybofey","Ireland",-7.74208,54.70972,"Architecture"
"0a23df4b6f448339.jpg","Outdoors",85.900871276855,2,"Ballybofey","Ireland",-7.74208,54.70972,"Nature"
"0a23df4b6f448339.jpg","Apartment Building",84.956047058105,2,"Ballybofey","Ireland",-7.74208,54.70972,"Architecture"
"0a0af2d7a6a47564.jpg","Bird",99.807632446289,2,"Sandyford","Ireland",-6.3422325,53.719155,"Nature"
"0a0af2d7a6a47564.jpg","Animal",99.807632446289,2,"Sandyford","Ireland",-6.3422325,53.719155,"Nature"
"0a0af2d7a6a47564.jpg","Pelican",89.495483398438,2,"Sandyford","Ireland",-6.3422325,53.719155,"none"
"0a0af2d7a6a47564.jpg","Stork",80.766265869141,2,"Sandyford","Ireland",-6.3422325,53.719155,"none"
"0a0af2d7a6a47564.jpg","Beak",79.101303100586,2,"Sandyford","Ireland",-6.3422325,53.719155,"none"
"0a0af2d7a6a47564.jpg","Penguin",72.891159057617,2,"Sandyford","Ireland",-6.3422325,53.719155,"none"
"0a0af2d7a6a47564.jpg","Outdoors",70.053375244141,2,"Sandyford","Ireland",-6.3422325,53.719155,"Nature"
"0a0e21e69217f83f.jpg","Person",99.575309753418,2,"Kanturk","Ireland",-8.9342111,52.182304,"none"
"0a0e21e69217f83f.jpg","Human",99.575309753418,2,"Kanturk","Ireland",-8.9342111,52.182304,"none"
"0a0e21e69217f83f.jpg","Field",99.560829162598,2,"Kanturk","Ireland",-8.9342111,52.182304,"Nature"
"0a0e21e69217f83f.jpg","People",96.801696777344,2,"Kanturk","Ireland",-8.9342111,52.182304,"none"
"0a0e21e69217f83f.jpg","Building",86.690414428711,2,"Kanturk","Ireland",-8.9342111,52.182304,"Architecture"
"0a0e21e69217f83f.jpg","Sport",84.787483215332,2,"Kanturk","Ireland",-8.9342111,52.182304,"Adventure"
"0a0e21e69217f83f.jpg","Team",83.915061950684,2,"Kanturk","Ireland",-8.9342111,52.182304,"none"
"0a0e21e69217f83f.jpg","Team Sport",83.349479675293,2,"Kanturk","Ireland",-8.9342111,52.182304,"none"
"0a0e21e69217f83f.jpg","Crowd",74.876289367676,2,"Kanturk","Ireland",-8.9342111,52.182304,"Adventure"
"0a0e21e69217f83f.jpg","Outdoors",73.52751159668,2,"Kanturk","Ireland",-8.9342111,52.182304,"Nature"
"00b01c5b231e0853.jpg","Water",99.445976257324,3,"Tuam","Ireland",-8.83565,53.49417,"Beach"
"00b01c5b231e0853.jpg","Outdoors",99.357490539551,3,"Tuam","Ireland",-8.83565,53.49417,"Nature"
"00b01c5b231e0853.jpg","Canal",92.43537902832,3,"Tuam","Ireland",-8.83565,53.49417,"Architecture"
"00b01c5b231e0853.jpg","Nature",88.871742248535,3,"Tuam","Ireland",-8.83565,53.49417,"Nature"
"00ab9f96dbd14fab.jpg","Chair",99.975425720215,3,"Kilcullen","Ireland",-8.5047067,51.8830697,"Architecture"
"00ab9f96dbd14fab.jpg","Furniture",99.975425720215,3,"Kilcullen","Ireland",-8.5047067,51.8830697,"Architecture"
"00ab9f96dbd14fab.jpg","Flooring",97.473350524902,3,"Kilcullen","Ireland",-8.5047067,51.8830697,"Architecture"
"00ab9f96dbd14fab.jpg","Rocking Chair",95.603240966797,3,"Kilcullen","Ireland",-8.5047067,51.8830697,"Architecture"
"00ab9f96dbd14fab.jpg","Floor",86.350479125977,3,"Kilcullen","Ireland",-8.5047067,51.8830697,"Architecture"
"00ab9f96dbd14fab.jpg","Porch",80.614685058594,3,"Kilcullen","Ireland",-8.5047067,51.8830697,"none"
"000d6aba3b0af069.jpg","Art",95.774528503418,3,"R S","India",72.839054,21.2045417,"Architecture"
"000d6aba3b0af069.jpg","Stained Glass",89.17212677002,3,"R S","India",72.839054,21.2045417,"Architecture"
"000d6aba3b0af069.jpg","Architecture",82.521186828613,3,"R S","India",72.839054,21.2045417,"Architecture"
"000d6aba3b0af069.jpg","Building",82.521186828613,3,"R S","India",72.839054,21.2045417,"Architecture"
"00c9df88b4cafdd7.jpg","Building",99.249412536621,3,"Templeogue","Ireland",-6.3219759,53.2976886,"Architecture"
"00c9df88b4cafdd7.jpg","Architecture",99.249412536621,3,"Templeogue","Ireland",-6.3219759,53.2976886,"Architecture"
"00c9df88b4cafdd7.jpg","Church",95.445533752441,3,"Templeogue","Ireland",-6.3219759,53.2976886,"Architecture"
"00c9df88b4cafdd7.jpg","Altar",95.376907348633,3,"Templeogue","Ireland",-6.3219759,53.2976886,"Architecture"
"00c9df88b4cafdd7.jpg","Apse",94.803276062012,3,"Templeogue","Ireland",-6.3219759,53.2976886,"Architecture"
"00c4de6e6d3fd111.jpg","Lamp",98.031097412109,3,"Raheny","Ireland",-6.1820563,53.3786861,"Architecture"
"00c4de6e6d3fd111.jpg","Chandelier",96.962677001953,3,"Raheny","Ireland",-6.1820563,53.3786861,"none"
"00c4de6e6d3fd111.jpg","Lighting",91.353469848633,3,"Raheny","Ireland",-6.1820563,53.3786861,"none"
"00ae3a33d8af4b33.jpg","Book",100,3,"Thomastown","Ireland",-6.7434401,53.2229873,"Architecture"
"00ae3a33d8af4b33.jpg","Candle",99.309211730957,3,"Thomastown","Ireland",-6.7434401,53.2229873,"Architecture"
"00ae3a33d8af4b33.jpg","Plant",95.904640197754,3,"Thomastown","Ireland",-6.7434401,53.2229873,"Nature"
"00ae3a33d8af4b33.jpg","Text",95.14478302002,3,"Thomastown","Ireland",-6.7434401,53.2229873,"none"
"00ae3a33d8af4b33.jpg","Blossom",93.805816650391,3,"Thomastown","Ireland",-6.7434401,53.2229873,"Nature"
"00ae3a33d8af4b33.jpg","Flower",93.805816650391,3,"Thomastown","Ireland",-6.7434401,53.2229873,"Nature"
"00a99c2260adb717.jpg","Person",98.047782897949,3,"London","United Kingdom",-0.0983812,51.5267946,"none"
"00a99c2260adb717.jpg","Human",98.047782897949,3,"London","United Kingdom",-0.0983812,51.5267946,"none"
"00a99c2260adb717.jpg","Tent",96.826812744141,3,"London","United Kingdom",-0.0983812,51.5267946,"Architecture"
"00a99c2260adb717.jpg","Car",93.10066986084,3,"London","United Kingdom",-0.0983812,51.5267946,"Adventure"
"00a99c2260adb717.jpg","Automobile",93.10066986084,3,"London","United Kingdom",-0.0983812,51.5267946,"Adventure"
"00a99c2260adb717.jpg","Vehicle",93.10066986084,3,"London","United Kingdom",-0.0983812,51.5267946,"Adventure"
"00a99c2260adb717.jpg","Transportation",93.10066986084,3,"London","United Kingdom",-0.0983812,51.5267946,"Adventure"
"00a99c2260adb717.jpg","Camping",88.900024414062,3,"London","United Kingdom",-0.0983812,51.5267946,"Adventure"
"00a99c2260adb717.jpg","Building",71.502052307129,3,"London","United Kingdom",-0.0983812,51.5267946,"Architecture"
"00aaab0957a2f14d.jpg","Interior Design",87.317825317383,3,"Cluain Meala","Ireland",-6.2611953,53.3881832,"Architecture"
"00aaab0957a2f14d.jpg","Indoors",87.317825317383,3,"Cluain Meala","Ireland",-6.2611953,53.3881832,"Architecture"
"00aaab0957a2f14d.jpg","Shop",86.955726623535,3,"Cluain Meala","Ireland",-6.2611953,53.3881832,"Architecture"
"00aaab0957a2f14d.jpg","Handrail",85.597602844238,3,"Cluain Meala","Ireland",-6.2611953,53.3881832,"Architecture"
"00aaab0957a2f14d.jpg","Banister",85.597602844238,3,"Cluain Meala","Ireland",-6.2611953,53.3881832,"none"
"00aaab0957a2f14d.jpg","Stage",77.465286254883,3,"Cluain Meala","Ireland",-6.2611953,53.3881832,"Architecture"
"00aaab0957a2f14d.jpg","Window Display",74.070404052734,3,"Cluain Meala","Ireland",-6.2611953,53.3881832,"Architecture"
"00aaab0957a2f14d.jpg","Building",70.639167785645,3,"Cluain Meala","Ireland",-6.2611953,53.3881832,"Architecture"
"00b452f07273b555.jpg","Architecture",99.874465942383,3,"Drumcondra","Ireland",-8.445614,51.8885086,"Architecture"
"00b452f07273b555.jpg","Building",99.874465942383,3,"Drumcondra","Ireland",-8.445614,51.8885086,"Architecture"
"00b452f07273b555.jpg","Apse",89.834205627441,3,"Drumcondra","Ireland",-8.445614,51.8885086,"Architecture"
"00b452f07273b555.jpg","Window",83.139167785645,3,"Drumcondra","Ireland",-8.445614,51.8885086,"Architecture"
"00c689b1bb4ae4a0.jpg","Pet",96.001678466797,4,"Burnside","United Kingdom",-3.5420426,55.9206837,"none"
"00c689b1bb4ae4a0.jpg","Canine",96.001678466797,4,"Burnside","United Kingdom",-3.5420426,55.9206837,"none"
"00c689b1bb4ae4a0.jpg","Collie",96.001678466797,4,"Burnside","United Kingdom",-3.5420426,55.9206837,"none"
"00c689b1bb4ae4a0.jpg","Mammal",96.001678466797,4,"Burnside","United Kingdom",-3.5420426,55.9206837,"none"
"00c689b1bb4ae4a0.jpg","Animal",96.001678466797,4,"Burnside","United Kingdom",-3.5420426,55.9206837,"Nature"
"00c689b1bb4ae4a0.jpg","Dog",96.001678466797,4,"Burnside","United Kingdom",-3.5420426,55.9206837,"none"
"00c2db0fd32a0f2b.jpg","Human",99.472595214844,4,"Cherryville","Ireland",-7.1111732,52.2513095,"none"
"00c2db0fd32a0f2b.jpg","Camping",99.472595214844,4,"Cherryville","Ireland",-7.1111732,52.2513095,"Adventure"
"00c2db0fd32a0f2b.jpg","Person",99.472595214844,4,"Cherryville","Ireland",-7.1111732,52.2513095,"none"
"00c2db0fd32a0f2b.jpg","Tent",98.411956787109,4,"Cherryville","Ireland",-7.1111732,52.2513095,"Architecture"
"00c2db0fd32a0f2b.jpg","Car",91.962425231934,4,"Cherryville","Ireland",-7.1111732,52.2513095,"Adventure"
"00c2db0fd32a0f2b.jpg","Vehicle",91.962425231934,4,"Cherryville","Ireland",-7.1111732,52.2513095,"Adventure"
"00c2db0fd32a0f2b.jpg","Transportation",91.962425231934,4,"Cherryville","Ireland",-7.1111732,52.2513095,"Adventure"
"00c2db0fd32a0f2b.jpg","Bicycle",85.402320861816,4,"Cherryville","Ireland",-7.1111732,52.2513095,"Adventure"
"00c2db0fd32a0f2b.jpg","Leisure Activities",74.844299316406,4,"Cherryville","Ireland",-7.1111732,52.2513095,"none"
"00c2db0fd32a0f2b.jpg","Mountain Tent",73.73314666748,4,"Cherryville","Ireland",-7.1111732,52.2513095,"Adventure"
"00b6654f37f1f655.jpg","Person",99.885101318359,4,"Dalkey","Ireland",-6.1072403,53.2780047,"none"
"00b6654f37f1f655.jpg","Human",99.885101318359,4,"Dalkey","Ireland",-6.1072403,53.2780047,"none"
"00b6654f37f1f655.jpg","Clothing",88.337921142578,4,"Dalkey","Ireland",-6.1072403,53.2780047,"Clothing"
"00b6654f37f1f655.jpg","Apparel",88.337921142578,4,"Dalkey","Ireland",-6.1072403,53.2780047,"Clothing"
"00b6654f37f1f655.jpg","Bus",78.544746398926,4,"Dalkey","Ireland",-6.1072403,53.2780047,"Adventure"
"00b6654f37f1f655.jpg","Transportation",78.544746398926,4,"Dalkey","Ireland",-6.1072403,53.2780047,"Adventure"
"00b6654f37f1f655.jpg","Vehicle",78.544746398926,4,"Dalkey","Ireland",-6.1072403,53.2780047,"Adventure"
"00b6654f37f1f655.jpg","Plant",74.724822998047,4,"Dalkey","Ireland",-6.1072403,53.2780047,"Nature"
"000b39037205b35d.jpg","Plant",99.694442749023,4,"Piltown","Ireland",-6.3025448,53.6920618,"Nature"
"000b39037205b35d.jpg","Food",97.839920043945,4,"Piltown","Ireland",-6.3025448,53.6920618,"Food"
"000b39037205b35d.jpg","Fruit",97.839920043945,4,"Piltown","Ireland",-6.3025448,53.6920618,"Food"
"000b39037205b35d.jpg","Apple",78.042579650879,4,"Piltown","Ireland",-6.3025448,53.6920618,"Food"
"00bbf04e4c98bc11.jpg","Furniture",99.741851806641,4,"Aghada","Ireland",-8.4627451,54.25645,"Architecture"
"00bbf04e4c98bc11.jpg","Table",98.475952148438,4,"Aghada","Ireland",-8.4627451,54.25645,"Architecture"
"00bbf04e4c98bc11.jpg","Electronics",96.712341308594,4,"Aghada","Ireland",-8.4627451,54.25645,"none"
"00bbf04e4c98bc11.jpg","Screen",96.712341308594,4,"Aghada","Ireland",-8.4627451,54.25645,"none"
"00bbf04e4c98bc11.jpg","Monitor",96.712341308594,4,"Aghada","Ireland",-8.4627451,54.25645,"none"
"00bbf04e4c98bc11.jpg","Desk",96.617462158203,4,"Aghada","Ireland",-8.4627451,54.25645,"Architecture"
"00bbf04e4c98bc11.jpg","Indoors",92.862854003906,4,"Aghada","Ireland",-8.4627451,54.25645,"Architecture"
"00bbf04e4c98bc11.jpg","LCD Screen",90.997741699219,4,"Aghada","Ireland",-8.4627451,54.25645,"none"
"00bbf04e4c98bc11.jpg","Computer",90.299354553223,4,"Aghada","Ireland",-8.4627451,54.25645,"none"
"00bbf04e4c98bc11.jpg","Interior Design",88.923530578613,4,"Aghada","Ireland",-8.4627451,54.25645,"Architecture"
"00c37dc70d8f99ff.jpg","Nature",97.975593566895,4,"Kiltamagh","Ireland",-8.9949917,53.8533151,"Nature"
"00c37dc70d8f99ff.jpg","Tree",97.903945922852,4,"Kiltamagh","Ireland",-8.9949917,53.8533151,"Nature"
"00c37dc70d8f99ff.jpg","Plant",97.903945922852,4,"Kiltamagh","Ireland",-8.9949917,53.8533151,"Nature"
"00c37dc70d8f99ff.jpg","Car",95.564056396484,4,"Kiltamagh","Ireland",-8.9949917,53.8533151,"Adventure"
"00c37dc70d8f99ff.jpg","Transportation",95.564056396484,4,"Kiltamagh","Ireland",-8.9949917,53.8533151,"Adventure"
"00c37dc70d8f99ff.jpg","Vehicle",95.564056396484,4,"Kiltamagh","Ireland",-8.9949917,53.8533151,"Adventure"
"00c37dc70d8f99ff.jpg","Automobile",95.564056396484,4,"Kiltamagh","Ireland",-8.9949917,53.8533151,"Adventure"
"00c37dc70d8f99ff.jpg","Flood",94.634574890137,4,"Kiltamagh","Ireland",-8.9949917,53.8533151,"Beach"
"00c37dc70d8f99ff.jpg","Bicycle",85.425659179688,4,"Kiltamagh","Ireland",-8.9949917,53.8533151,"Adventure"
"00c37dc70d8f99ff.jpg","Bike",85.425659179688,4,"Kiltamagh","Ireland",-8.9949917,53.8533151,"Adventure"
"00c646245b319944.jpg","Transportation",93.703834533691,4,"Athy","Ireland",-6.9858993,53.0018699,"Adventure"
"00c646245b319944.jpg","Vehicle",93.703834533691,4,"Athy","Ireland",-6.9858993,53.0018699,"Adventure"
"00c646245b319944.jpg","Truck",91.595367431641,4,"Athy","Ireland",-6.9858993,53.0018699,"Adventure"
"00c646245b319944.jpg","Tractor",90.948738098145,4,"Athy","Ireland",-6.9858993,53.0018699,"none"
"00c646245b319944.jpg","Machine",89.404640197754,4,"Athy","Ireland",-6.9858993,53.0018699,"none"
"00c646245b319944.jpg","Wheel",89.404640197754,4,"Athy","Ireland",-6.9858993,53.0018699,"Adventure"
"00c646245b319944.jpg","Bulldozer",83.566230773926,4,"Athy","Ireland",-6.9858993,53.0018699,"none"
"00caaabba2ab255e.jpg","Nature",99.155426025391,4,"Ballymahon","Ireland",-7.7655701,53.5650926,"Nature"
"00caaabba2ab255e.jpg","Flood",98.096038818359,4,"Ballymahon","Ireland",-7.7655701,53.5650926,"Beach"
"00caaabba2ab255e.jpg","Water",98.04500579834,4,"Ballymahon","Ireland",-7.7655701,53.5650926,"Beach"
"00caaabba2ab255e.jpg","Outdoors",96.741706848145,4,"Ballymahon","Ireland",-7.7655701,53.5650926,"Nature"
"00caaabba2ab255e.jpg","Land",86.212944030762,4,"Ballymahon","Ireland",-7.7655701,53.5650926,"Nature"
"00caaabba2ab255e.jpg","Plant",80.997749328613,4,"Ballymahon","Ireland",-7.7655701,53.5650926,"Nature"
"00caaabba2ab255e.jpg","Tree",80.997749328613,4,"Ballymahon","Ireland",-7.7655701,53.5650926,"Nature"
"00c2f730d2f44390.jpg","Transportation",97.763526916504,4,"Ford","United Kingdom",-1.875716,51.962948,"Adventure"
"00c2f730d2f44390.jpg","Vehicle",97.763526916504,4,"Ford","United Kingdom",-1.875716,51.962948,"Adventure"
"00c2f730d2f44390.jpg","Vessel",97.763526916504,4,"Ford","United Kingdom",-1.875716,51.962948,"Food"
"00c2f730d2f44390.jpg","Watercraft",97.763526916504,4,"Ford","United Kingdom",-1.875716,51.962948,"none"
"00c2f730d2f44390.jpg","Nature",95.441452026367,4,"Ford","United Kingdom",-1.875716,51.962948,"Nature"
"00c2f730d2f44390.jpg","Outdoors",94.431549072266,4,"Ford","United Kingdom",-1.875716,51.962948,"Nature"
"00c2f730d2f44390.jpg","Boat",91.170913696289,4,"Ford","United Kingdom",-1.875716,51.962948,"Beach"
"00c2f730d2f44390.jpg","Building",88.602180480957,4,"Ford","United Kingdom",-1.875716,51.962948,"Architecture"
"00c2f730d2f44390.jpg","Water",85.335258483887,4,"Ford","United Kingdom",-1.875716,51.962948,"Beach"
"00c2f730d2f44390.jpg","Countryside",76.724594116211,4,"Ford","United Kingdom",-1.875716,51.962948,"Nature"
"00b0508b8267915e.jpg","Construction",99.739097595215,5,"Granard","Ireland",-7.5011999,53.776647,"Architecture"
"00b0508b8267915e.jpg","Scaffolding",92.800476074219,5,"Granard","Ireland",-7.5011999,53.776647,"none"
"00b0508b8267915e.jpg","Construction Crane",71.366020202637,5,"Granard","Ireland",-7.5011999,53.776647,"Architecture"
"0a1b133358b1ce7e.jpg","Building",99.584197998047,5,"Whitchurch","United Kingdom",-2.5573746,51.4057505,"Architecture"
"0a1b133358b1ce7e.jpg","Urban",99.584197998047,5,"Whitchurch","United Kingdom",-2.5573746,51.4057505,"Architecture"
"0a1b133358b1ce7e.jpg","City",99.584197998047,5,"Whitchurch","United Kingdom",-2.5573746,51.4057505,"Architecture"
"0a1b133358b1ce7e.jpg","Metropolis",99.433067321777,5,"Whitchurch","United Kingdom",-2.5573746,51.4057505,"Architecture"
"0a1b133358b1ce7e.jpg","High Rise",99.181640625,5,"Whitchurch","United Kingdom",-2.5573746,51.4057505,"none"
"0a1b133358b1ce7e.jpg","Water",96.564933776855,5,"Whitchurch","United Kingdom",-2.5573746,51.4057505,"Beach"
"0a1b133358b1ce7e.jpg","Spire",92.870407104492,5,"Whitchurch","United Kingdom",-2.5573746,51.4057505,"Architecture"
"0a1b133358b1ce7e.jpg","Boat",92.702209472656,5,"Whitchurch","United Kingdom",-2.5573746,51.4057505,"Beach"
"0a1b133358b1ce7e.jpg","Downtown",91.74390411377,5,"Whitchurch","United Kingdom",-2.5573746,51.4057505,"Architecture"
"0a1b133358b1ce7e.jpg","Outdoors",91.546432495117,5,"Whitchurch","United Kingdom",-2.5573746,51.4057505,"Nature"
"0a99b9a7f26038b3.jpg","Handrail",98.421928405762,5,"Newport","United Kingdom",1.6993747,52.6915552,"Architecture"
"0a99b9a7f26038b3.jpg","Banister",98.421928405762,5,"Newport","United Kingdom",1.6993747,52.6915552,"none"
"0a99b9a7f26038b3.jpg","Flooring",98.191177368164,5,"Newport","United Kingdom",1.6993747,52.6915552,"Architecture"
"0a99b9a7f26038b3.jpg","Floor",92.888038635254,5,"Newport","United Kingdom",1.6993747,52.6915552,"Architecture"
"0a99b9a7f26038b3.jpg","Staircase",88.559852600098,5,"Newport","United Kingdom",1.6993747,52.6915552,"none"
"0a7aa2105f4fd102.jpg","Building",97.584907531738,5,"Stradbally","Ireland",-8.5054897,52.7107501,"Architecture"
"0a7aa2105f4fd102.jpg","Architecture",94.921905517578,5,"Stradbally","Ireland",-8.5054897,52.7107501,"Architecture"
"0a7aa2105f4fd102.jpg","Office Building",87.225929260254,5,"Stradbally","Ireland",-8.5054897,52.7107501,"Architecture"
"0a7aa2105f4fd102.jpg","Housing",83.055686950684,5,"Stradbally","Ireland",-8.5054897,52.7107501,"Architecture"
"0a7aa2105f4fd102.jpg","Urban",76.519508361816,5,"Stradbally","Ireland",-8.5054897,52.7107501,"Architecture"
"0a7aa2105f4fd102.jpg","Roof",70.091247558594,5,"Stradbally","Ireland",-8.5054897,52.7107501,"Architecture"
"0a1a83baada2c980.jpg","Car",99.802314758301,5,"Sallins","Ireland",-6.6633404,53.2492381,"Adventure"
"0a1a83baada2c980.jpg","Transportation",99.802314758301,5,"Sallins","Ireland",-6.6633404,53.2492381,"Adventure"
"0a1a83baada2c980.jpg","Interior Design",97.938034057617,5,"Sallins","Ireland",-6.6633404,53.2492381,"Architecture"
"0a1a83baada2c980.jpg","Wheel",96.57942199707,5,"Sallins","Ireland",-6.6633404,53.2492381,"Adventure"
"0a1a83baada2c980.jpg","Road",95.318969726562,5,"Sallins","Ireland",-6.6633404,53.2492381,"Adventure"
"0a1a83baada2c980.jpg","Building",92.404411315918,5,"Sallins","Ireland",-6.6633404,53.2492381,"Architecture"
"0a1a83baada2c980.jpg","Urban",88.727317810059,5,"Sallins","Ireland",-6.6633404,53.2492381,"Architecture"
"0a1a83baada2c980.jpg","Tarmac",82.823280334473,5,"Sallins","Ireland",-6.6633404,53.2492381,"Architecture"
"0a1a83baada2c980.jpg","Meal",79.490646362305,5,"Sallins","Ireland",-6.6633404,53.2492381,"Food"
"0a1a83baada2c980.jpg","Tire",76.99080657959,5,"Sallins","Ireland",-6.6633404,53.2492381,"Adventure"
"0ab7dec6b7126f97.jpg","Building",99.007247924805,5,"Cluain Meala","Ireland",-6.2611953,53.3881832,"Architecture"
"0ab7dec6b7126f97.jpg","Architecture",99.007247924805,5,"Cluain Meala","Ireland",-6.2611953,53.3881832,"Architecture"
"0ab7dec6b7126f97.jpg","Tower",98.234275817871,5,"Cluain Meala","Ireland",-6.2611953,53.3881832,"Architecture"
"0ab7dec6b7126f97.jpg","Dome",98.08504486084,5,"Cluain Meala","Ireland",-6.2611953,53.3881832,"Architecture"
"0ab7dec6b7126f97.jpg","Spire",78.698287963867,5,"Cluain Meala","Ireland",-6.2611953,53.3881832,"Architecture"
"0ab7dec6b7126f97.jpg","Steeple",78.698287963867,5,"Cluain Meala","Ireland",-6.2611953,53.3881832,"none"
"0aa3e823c92a41fe.jpg","Walkway",99.838874816895,5,"Edgeworthstown","Ireland",-7.606287,53.6972399,"Architecture"
"0aa3e823c92a41fe.jpg","Path",99.838874816895,5,"Edgeworthstown","Ireland",-7.606287,53.6972399,"Architecture"
"0aa3e823c92a41fe.jpg","Sidewalk",96.026016235352,5,"Edgeworthstown","Ireland",-7.606287,53.6972399,"Architecture"
"0aa3e823c92a41fe.jpg","Flagstone",93.387603759766,5,"Edgeworthstown","Ireland",-7.606287,53.6972399,"none"
"0aa3e823c92a41fe.jpg","Home Decor",80.54744720459,5,"Edgeworthstown","Ireland",-7.606287,53.6972399,"Architecture"
"0aa3e823c92a41fe.jpg","Architecture",79.089805603027,5,"Edgeworthstown","Ireland",-7.606287,53.6972399,"Architecture"
"0aa3e823c92a41fe.jpg","Building",79.089805603027,5,"Edgeworthstown","Ireland",-7.606287,53.6972399,"Architecture"
"0aa3e823c92a41fe.jpg","Tower",79.089805603027,5,"Edgeworthstown","Ireland",-7.606287,53.6972399,"Architecture"
"0aa3e823c92a41fe.jpg","Spire",79.089805603027,5,"Edgeworthstown","Ireland",-7.606287,53.6972399,"Architecture"
"0aa3e823c92a41fe.jpg","Window",70.86979675293,5,"Edgeworthstown","Ireland",-7.606287,53.6972399,"Architecture"
"00caf762535ab020.jpg","Person",99.730453491211,5,"Rathnew","Ireland",-6.374155,53.3223974,"none"
"00caf762535ab020.jpg","Building",99.206504821777,5,"Rathnew","Ireland",-6.374155,53.3223974,"Architecture"
"00caf762535ab020.jpg","Architecture",99.206504821777,5,"Rathnew","Ireland",-6.374155,53.3223974,"Architecture"
"00caf762535ab020.jpg","Monastery",99.206504821777,5,"Rathnew","Ireland",-6.374155,53.3223974,"Architecture"
"00caf762535ab020.jpg","Housing",99.206504821777,5,"Rathnew","Ireland",-6.374155,53.3223974,"Architecture"
"00caf762535ab020.jpg","Fashion",97.315414428711,5,"Rathnew","Ireland",-6.374155,53.3223974,"Clothing"
"00caf762535ab020.jpg","Premiere",97.255577087402,5,"Rathnew","Ireland",-6.374155,53.3223974,"none"
"00caf762535ab020.jpg","Red Carpet",97.255577087402,5,"Rathnew","Ireland",-6.374155,53.3223974,"Architecture"
"00caf762535ab020.jpg","Helmet",96.995727539062,5,"Rathnew","Ireland",-6.374155,53.3223974,"Adventure"
"00caf762535ab020.jpg","Temple",76.872528076172,5,"Rathnew","Ireland",-6.374155,53.3223974,"Architecture"
"00cc8d22e4dda41d.jpg","Person",99.688804626465,5,"Ferbane","Ireland",-8.4824714,51.8862378,"none"
"00cc8d22e4dda41d.jpg","Traffic Light",98.610137939453,5,"Ferbane","Ireland",-8.4824714,51.8862378,"Adventure"
"00cc8d22e4dda41d.jpg","Road",98.417854309082,5,"Ferbane","Ireland",-8.4824714,51.8862378,"Adventure"
"00cc8d22e4dda41d.jpg","Car",96.365386962891,5,"Ferbane","Ireland",-8.4824714,51.8862378,"Adventure"
"00cc8d22e4dda41d.jpg","Fire Hydrant",94.408889770508,5,"Ferbane","Ireland",-8.4824714,51.8862378,"none"
"00cc8d22e4dda41d.jpg","Intersection",93.723197937012,5,"Ferbane","Ireland",-8.4824714,51.8862378,"none"
"00cc8d22e4dda41d.jpg","Urban",91.138710021973,5,"Ferbane","Ireland",-8.4824714,51.8862378,"Architecture"
"00cc8d22e4dda41d.jpg","City",84.850860595703,5,"Ferbane","Ireland",-8.4824714,51.8862378,"Architecture"
"00cc8d22e4dda41d.jpg","Meal",82.808052062988,5,"Ferbane","Ireland",-8.4824714,51.8862378,"Food"
"00cc8d22e4dda41d.jpg","Path",82.584716796875,5,"Ferbane","Ireland",-8.4824714,51.8862378,"Architecture"
"0a50de9d83760958.jpg","Archaeology",98.284133911133,5,"Church End","United Kingdom",-0.198414,51.598282,"Architecture"
"0a50de9d83760958.jpg","Architecture",97.346458435059,5,"Church End","United Kingdom",-0.198414,51.598282,"Architecture"
"0a50de9d83760958.jpg","Building",97.346458435059,5,"Church End","United Kingdom",-0.198414,51.598282,"Architecture"
"0a50de9d83760958.jpg","Person",95.543479919434,5,"Church End","United Kingdom",-0.198414,51.598282,"none"
"0a50de9d83760958.jpg","Human",95.543479919434,5,"Church End","United Kingdom",-0.198414,51.598282,"none"
"0a50de9d83760958.jpg","Art",81.057067871094,5,"Church End","United Kingdom",-0.198414,51.598282,"Architecture"
"0a50de9d83760958.jpg","Sculpture",81.057067871094,5,"Church End","United Kingdom",-0.198414,51.598282,"Architecture"
"0a50de9d83760958.jpg","Monastery",71.880142211914,5,"Church End","United Kingdom",-0.198414,51.598282,"Architecture"
"0a50de9d83760958.jpg","Housing",71.880142211914,5,"Church End","United Kingdom",-0.198414,51.598282,"Architecture"
"00d8d8a2fe276b66.jpg","Nature",96.043380737305,5,"Bundoran","Ireland",-8.2817353,54.4771768,"Nature"
"00d8d8a2fe276b66.jpg","Roof",95.661415100098,5,"Bundoran","Ireland",-8.2817353,54.4771768,"Architecture"
"00d8d8a2fe276b66.jpg","Outdoors",94.543434143066,5,"Bundoran","Ireland",-8.2817353,54.4771768,"Nature"
"00d8d8a2fe276b66.jpg","Building",85.793746948242,5,"Bundoran","Ireland",-8.2817353,54.4771768,"Architecture"
"00d8d8a2fe276b66.jpg","Countryside",80.767929077148,5,"Bundoran","Ireland",-8.2817353,54.4771768,"Nature"
"00d8d8a2fe276b66.jpg","Architecture",79.15909576416,5,"Bundoran","Ireland",-8.2817353,54.4771768,"Architecture"
"00d8d8a2fe276b66.jpg","Shelter",77.145820617676,5,"Bundoran","Ireland",-8.2817353,54.4771768,"none"
"00d8d8a2fe276b66.jpg","Rural",77.145820617676,5,"Bundoran","Ireland",-8.2817353,54.4771768,"Architecture"
"00d8d8a2fe276b66.jpg","Housing",75.83032989502,5,"Bundoran","Ireland",-8.2817353,54.4771768,"Architecture"
"00d8d8a2fe276b66.jpg","Wall",70.501190185547,5,"Bundoran","Ireland",-8.2817353,54.4771768,"Architecture"
"0aa1cc57022a5f64.jpg","Vehicle",99.459884643555,5,"Bearna","Ireland",-6.2340942,53.2993199,"Adventure"
"0aa1cc57022a5f64.jpg","Car",99.459884643555,5,"Bearna","Ireland",-6.2340942,53.2993199,"Adventure"
"0aa1cc57022a5f64.jpg","Transportation",99.459884643555,5,"Bearna","Ireland",-6.2340942,53.2993199,"Adventure"
"0aa1cc57022a5f64.jpg","Spoke",98.035758972168,5,"Bearna","Ireland",-6.2340942,53.2993199,"none"
"0aa1cc57022a5f64.jpg","Machine",98.035758972168,5,"Bearna","Ireland",-6.2340942,53.2993199,"none"
"0aa1cc57022a5f64.jpg","Tire",97.874160766602,5,"Bearna","Ireland",-6.2340942,53.2993199,"Adventure"
"0aa1cc57022a5f64.jpg","Wheel",96.840194702148,5,"Bearna","Ireland",-6.2340942,53.2993199,"Adventure"
"0aa1cc57022a5f64.jpg","Alloy Wheel",95.785003662109,5,"Bearna","Ireland",-6.2340942,53.2993199,"none"
"0aa1cc57022a5f64.jpg","Car Wheel",93.685447692871,5,"Bearna","Ireland",-6.2340942,53.2993199,"Adventure"
"0aa1cc57022a5f64.jpg","Hot Rod",92.004379272461,5,"Bearna","Ireland",-6.2340942,53.2993199,"none"
"0a4491cb52b6bbae.jpg","Home Decor",99.906898498535,5,"Ballyboden","Ireland",-6.3049392,53.3021194,"Architecture"
"0a4491cb52b6bbae.jpg","Vehicle",99.779502868652,5,"Ballyboden","Ireland",-6.3049392,53.3021194,"Adventure"
"0a4491cb52b6bbae.jpg","Car",99.779502868652,5,"Ballyboden","Ireland",-6.3049392,53.3021194,"Adventure"
"0a4491cb52b6bbae.jpg","Tire",99.529586791992,5,"Ballyboden","Ireland",-6.3049392,53.3021194,"Adventure"
"0a4491cb52b6bbae.jpg","Wheel",98.950508117676,5,"Ballyboden","Ireland",-6.3049392,53.3021194,"Adventure"
"0a4491cb52b6bbae.jpg","Machine",98.950508117676,5,"Ballyboden","Ireland",-6.3049392,53.3021194,"none"
"0a4491cb52b6bbae.jpg","Spoke",98.030578613281,5,"Ballyboden","Ireland",-6.3049392,53.3021194,"none"
"0a4491cb52b6bbae.jpg","Alloy Wheel",97.515937805176,5,"Ballyboden","Ireland",-6.3049392,53.3021194,"none"
"0a4491cb52b6bbae.jpg","Car Wheel",97.173614501953,5,"Ballyboden","Ireland",-6.3049392,53.3021194,"Adventure"
"0a4491cb52b6bbae.jpg","Window",89.093040466309,5,"Ballyboden","Ireland",-6.3049392,53.3021194,"Architecture"
"00d3ef1c8cbca06f.jpg","Building",95.286880493164,5,"Glasgow","United Kingdom",-4.2494388,55.8709949,"Architecture"
"00d3ef1c8cbca06f.jpg","Urban",94.422546386719,5,"Glasgow","United Kingdom",-4.2494388,55.8709949,"Architecture"
"00d3ef1c8cbca06f.jpg","City",92.486251831055,5,"Glasgow","United Kingdom",-4.2494388,55.8709949,"Architecture"
"00d3ef1c8cbca06f.jpg","High Rise",88.621620178223,5,"Glasgow","United Kingdom",-4.2494388,55.8709949,"none"
"00d3ef1c8cbca06f.jpg","Architecture",87.687492370605,5,"Glasgow","United Kingdom",-4.2494388,55.8709949,"Architecture"
"00d3ef1c8cbca06f.jpg","Downtown",85.386016845703,5,"Glasgow","United Kingdom",-4.2494388,55.8709949,"Architecture"
"00d3ef1c8cbca06f.jpg","Brick",82.534530639648,5,"Glasgow","United Kingdom",-4.2494388,55.8709949,"Architecture"
"00d3ef1c8cbca06f.jpg","Condo",81.777336120605,5,"Glasgow","United Kingdom",-4.2494388,55.8709949,"none"
"00d3ef1c8cbca06f.jpg","Housing",81.777336120605,5,"Glasgow","United Kingdom",-4.2494388,55.8709949,"Architecture"
"00d3ef1c8cbca06f.jpg","Apartment Building",75.751335144043,5,"Glasgow","United Kingdom",-4.2494388,55.8709949,"Architecture"
"0add150db0dcd4e2.jpg","Building",96.968681335449,6,"Walton","United Kingdom",-1.585418,52.177639,"Architecture"
"0add150db0dcd4e2.jpg","Architecture",96.968681335449,6,"Walton","United Kingdom",-1.585418,52.177639,"Architecture"
"0add150db0dcd4e2.jpg","Tower",95.244216918945,6,"Walton","United Kingdom",-1.585418,52.177639,"Architecture"
"0add150db0dcd4e2.jpg","Spire",95.244216918945,6,"Walton","United Kingdom",-1.585418,52.177639,"Architecture"
"0add150db0dcd4e2.jpg","Plant",93.25122833252,6,"Walton","United Kingdom",-1.585418,52.177639,"Nature"
"0add150db0dcd4e2.jpg","Grass",93.25122833252,6,"Walton","United Kingdom",-1.585418,52.177639,"Food"
"0add150db0dcd4e2.jpg","Church",86.205207824707,6,"Walton","United Kingdom",-1.585418,52.177639,"Architecture"
"0add150db0dcd4e2.jpg","Bench",80.37580871582,6,"Walton","United Kingdom",-1.585418,52.177639,"Architecture"
"0add150db0dcd4e2.jpg","Furniture",80.37580871582,6,"Walton","United Kingdom",-1.585418,52.177639,"Architecture"
"0add150db0dcd4e2.jpg","Fence",70.044853210449,6,"Walton","United Kingdom",-1.585418,52.177639,"none"
"0ae4592599b6392d.jpg","Building",99.998153686523,6,"Bayside","Ireland",-9.1097137,53.2582868,"Architecture"
"0ae4592599b6392d.jpg","Office Building",99.998153686523,6,"Bayside","Ireland",-9.1097137,53.2582868,"Architecture"
"0ae4592599b6392d.jpg","Urban",97.953269958496,6,"Bayside","Ireland",-9.1097137,53.2582868,"Architecture"
"0ae4592599b6392d.jpg","City",97.953269958496,6,"Bayside","Ireland",-9.1097137,53.2582868,"Architecture"
"0ae4592599b6392d.jpg","High Rise",97.953269958496,6,"Bayside","Ireland",-9.1097137,53.2582868,"none"
"0ae4592599b6392d.jpg","Town",97.953269958496,6,"Bayside","Ireland",-9.1097137,53.2582868,"Architecture"
"0ae4592599b6392d.jpg","Bird",88.687942504883,6,"Bayside","Ireland",-9.1097137,53.2582868,"Nature"
"0ae4592599b6392d.jpg","Animal",88.687942504883,6,"Bayside","Ireland",-9.1097137,53.2582868,"Nature"
"0ae4592599b6392d.jpg","Architecture",87.391822814941,6,"Bayside","Ireland",-9.1097137,53.2582868,"Architecture"
"0ae4592599b6392d.jpg","Apartment Building",81.330238342285,6,"Bayside","Ireland",-9.1097137,53.2582868,"Architecture"
"0b2b3c70fc932a29.jpg","Transportation",99.755500793457,6,"Piltown","Ireland",-6.3025448,53.6920618,"Adventure"
"0b2b3c70fc932a29.jpg","Watercraft",99.755500793457,6,"Piltown","Ireland",-6.3025448,53.6920618,"none"
"0b2b3c70fc932a29.jpg","Vehicle",99.755500793457,6,"Piltown","Ireland",-6.3025448,53.6920618,"Adventure"
"0b2b3c70fc932a29.jpg","Person",95.41877746582,6,"Piltown","Ireland",-6.3025448,53.6920618,"none"
"0b2b3c70fc932a29.jpg","Water",95.034019470215,6,"Piltown","Ireland",-6.3025448,53.6920618,"Beach"
"0b2b3c70fc932a29.jpg","Outdoors",84.204765319824,6,"Piltown","Ireland",-6.3025448,53.6920618,"Nature"
"0b2b3c70fc932a29.jpg","Boat",80.356857299805,6,"Piltown","Ireland",-6.3025448,53.6920618,"Beach"
"0b2b3c70fc932a29.jpg","Rowboat",75.619125366211,6,"Piltown","Ireland",-6.3025448,53.6920618,"none"
"0b2b3c70fc932a29.jpg","Canal",74.266479492188,6,"Piltown","Ireland",-6.3025448,53.6920618,"Architecture"
"0b2b3c70fc932a29.jpg","Waterfront",70.879432678223,6,"Piltown","Ireland",-6.3025448,53.6920618,"none"
"0ab113d8852dddd7.jpg","Flagstone",99.997146606445,6,"Linton","United Kingdom",-2.0215836,54.0542238,"none"
"0ab113d8852dddd7.jpg","Path",99.951232910156,6,"Linton","United Kingdom",-2.0215836,54.0542238,"Architecture"
"0ab113d8852dddd7.jpg","Walkway",99.951232910156,6,"Linton","United Kingdom",-2.0215836,54.0542238,"Architecture"
"0ab113d8852dddd7.jpg","Roof",95.027061462402,6,"Linton","United Kingdom",-2.0215836,54.0542238,"Architecture"
"0ab113d8852dddd7.jpg","Pavement",92.919647216797,6,"Linton","United Kingdom",-2.0215836,54.0542238,"none"
"0ab113d8852dddd7.jpg","Sidewalk",92.919647216797,6,"Linton","United Kingdom",-2.0215836,54.0542238,"Architecture"
"0ab113d8852dddd7.jpg","Slate",85.230270385742,6,"Linton","United Kingdom",-2.0215836,54.0542238,"none"
"0ab113d8852dddd7.jpg","Human",70.271614074707,6,"Linton","United Kingdom",-2.0215836,54.0542238,"none"
"0ab113d8852dddd7.jpg","Person",70.271614074707,6,"Linton","United Kingdom",-2.0215836,54.0542238,"none"
"0af0823283461fd5.jpg","Fireplace",92.201789855957,6,"Kill","Ireland",-6.5924609,53.2482376,"Architecture"
"0af0823283461fd5.jpg","Indoors",92.201789855957,6,"Kill","Ireland",-6.5924609,53.2482376,"Architecture"
"0af0823283461fd5.jpg","Building",88.519264221191,6,"Kill","Ireland",-6.5924609,53.2482376,"Architecture"
"0af0823283461fd5.jpg","Architecture",88.519264221191,6,"Kill","Ireland",-6.5924609,53.2482376,"Architecture"
"0af0823283461fd5.jpg","Clock Tower",79.186538696289,6,"Kill","Ireland",-6.5924609,53.2482376,"Architecture"
"0af0823283461fd5.jpg","Tower",79.186538696289,6,"Kill","Ireland",-6.5924609,53.2482376,"Architecture"
"0af0823283461fd5.jpg","Logo",77.557624816895,6,"Kill","Ireland",-6.5924609,53.2482376,"Architecture"
"0af0823283461fd5.jpg","Symbol",77.557624816895,6,"Kill","Ireland",-6.5924609,53.2482376,"Architecture"
"0af0823283461fd5.jpg","Trademark",77.557624816895,6,"Kill","Ireland",-6.5924609,53.2482376,"Architecture"
"0af0823283461fd5.jpg","Archaeology",75.394813537598,6,"Kill","Ireland",-6.5924609,53.2482376,"Architecture"
"0af80fe4eac726b4.jpg","Dome",99.991714477539,6,"Balrothery","Ireland",-6.1884248,53.5879156,"Architecture"
"0af80fe4eac726b4.jpg","Architecture",99.991714477539,6,"Balrothery","Ireland",-6.1884248,53.5879156,"Architecture"
"0af80fe4eac726b4.jpg","Building",99.991714477539,6,"Balrothery","Ireland",-6.1884248,53.5879156,"Architecture"
"0af80fe4eac726b4.jpg","Tower",85.458297729492,6,"Balrothery","Ireland",-6.1884248,53.5879156,"Architecture"
"0af80fe4eac726b4.jpg","Mosque",84.24634552002,6,"Balrothery","Ireland",-6.1884248,53.5879156,"Architecture"
"0b02ce58e075aac1.jpg","Vehicle",98.683364868164,6,"Preston","United Kingdom",-2.70309,53.763201,"Adventure"
"0b02ce58e075aac1.jpg","Transportation",98.683364868164,6,"Preston","United Kingdom",-2.70309,53.763201,"Adventure"
"0b02ce58e075aac1.jpg","Train Station",98.683364868164,6,"Preston","United Kingdom",-2.70309,53.763201,"Architecture"
"0b02ce58e075aac1.jpg","Train",98.683364868164,6,"Preston","United Kingdom",-2.70309,53.763201,"Adventure"
"0b02ce58e075aac1.jpg","Terminal",98.683364868164,6,"Preston","United Kingdom",-2.70309,53.763201,"Architecture"
"0b02ce58e075aac1.jpg","Rail",98.343353271484,6,"Preston","United Kingdom",-2.70309,53.763201,"Architecture"
"0b02ce58e075aac1.jpg","Train Track",98.343353271484,6,"Preston","United Kingdom",-2.70309,53.763201,"Architecture"
"0b02ce58e075aac1.jpg","Railway",98.343353271484,6,"Preston","United Kingdom",-2.70309,53.763201,"Adventure"
"0ab80403286ef8cd.jpg","Urban",95.598075866699,6,"Sheffield","United Kingdom",-1.7622544,53.3992318,"Architecture"
"0ab80403286ef8cd.jpg","Building",95.368690490723,6,"Sheffield","United Kingdom",-1.7622544,53.3992318,"Architecture"
"0ab80403286ef8cd.jpg","Suburb",89.585762023926,6,"Sheffield","United Kingdom",-1.7622544,53.3992318,"Architecture"
"0ab80403286ef8cd.jpg","Plant",89.410446166992,6,"Sheffield","United Kingdom",-1.7622544,53.3992318,"Nature"
"0ab80403286ef8cd.jpg","Bush",89.410446166992,6,"Sheffield","United Kingdom",-1.7622544,53.3992318,"Nature"
"0ab80403286ef8cd.jpg","Vegetation",89.410446166992,6,"Sheffield","United Kingdom",-1.7622544,53.3992318,"Food"
"0ab80403286ef8cd.jpg","Town",78.238716125488,6,"Sheffield","United Kingdom",-1.7622544,53.3992318,"Architecture"
"0ab80403286ef8cd.jpg","City",78.238716125488,6,"Sheffield","United Kingdom",-1.7622544,53.3992318,"Architecture"
"0ab80403286ef8cd.jpg","Tarmac",78.098854064941,6,"Sheffield","United Kingdom",-1.7622544,53.3992318,"Architecture"
"0ab80403286ef8cd.jpg","Housing",75.76097869873,6,"Sheffield","United Kingdom",-1.7622544,53.3992318,"Architecture"
"0b54285de22a8d98.jpg","Food",97.285163879395,7,"Killumney","Ireland",-8.6340751,52.6638144,"Food"
"0b54285de22a8d98.jpg","Seasoning",97.285163879395,7,"Killumney","Ireland",-8.6340751,52.6638144,"Food"
"0b54285de22a8d98.jpg","Plant",94.719047546387,7,"Killumney","Ireland",-8.6340751,52.6638144,"Nature"
"0b54285de22a8d98.jpg","Produce",78.781066894531,7,"Killumney","Ireland",-8.6340751,52.6638144,"Food"
"0a0c54875010ccb1.jpg","Food",92.19554901123,7,"Norton","United Kingdom",-1.4631269,53.3326454,"Food"
"0a0c54875010ccb1.jpg","Dining Table",91.205421447754,7,"Norton","United Kingdom",-1.4631269,53.3326454,"Food"
"0a0c54875010ccb1.jpg","Furniture",91.205421447754,7,"Norton","United Kingdom",-1.4631269,53.3326454,"Architecture"
"0a0c54875010ccb1.jpg","Table",91.205421447754,7,"Norton","United Kingdom",-1.4631269,53.3326454,"Architecture"
"0a0c54875010ccb1.jpg","Sandwich",87.840919494629,7,"Norton","United Kingdom",-1.4631269,53.3326454,"Food"
"0a0c54875010ccb1.jpg","Meal",86.696243286133,7,"Norton","United Kingdom",-1.4631269,53.3326454,"Food"
"0a0c54875010ccb1.jpg","Dish",86.696243286133,7,"Norton","United Kingdom",-1.4631269,53.3326454,"Food"
"0a0c54875010ccb1.jpg","Seasoning",80.909088134766,7,"Norton","United Kingdom",-1.4631269,53.3326454,"Food"
"0a0c54875010ccb1.jpg","Plant",79.727874755859,7,"Norton","United Kingdom",-1.4631269,53.3326454,"Nature"
"0bb541d831c8c795.jpg","Food",99.271003723145,7,"Malahide","Ireland",-6.1479779,53.450694,"Food"
"0bb541d831c8c795.jpg","Fruit",99.271003723145,7,"Malahide","Ireland",-6.1479779,53.450694,"Food"
"0bb541d831c8c795.jpg","Plant",99.271003723145,7,"Malahide","Ireland",-6.1479779,53.450694,"Nature"
"0bb541d831c8c795.jpg","Orange",99.271003723145,7,"Malahide","Ireland",-6.1479779,53.450694,"Food"
"0bb541d831c8c795.jpg","Citrus Fruit",99.271003723145,7,"Malahide","Ireland",-6.1479779,53.450694,"Food"
"0bb541d831c8c795.jpg","Bread",96.515693664551,7,"Malahide","Ireland",-6.1479779,53.450694,"Food"
"0bb541d831c8c795.jpg","French Toast",92.410888671875,7,"Malahide","Ireland",-6.1479779,53.450694,"Food"
"0bb541d831c8c795.jpg","Toast",92.410888671875,7,"Malahide","Ireland",-6.1479779,53.450694,"Food"
"0bb541d831c8c795.jpg","Breakfast",81.481391906738,7,"Malahide","Ireland",-6.1479779,53.450694,"Food"
"0bb541d831c8c795.jpg","Burger",78.93399810791,7,"Malahide","Ireland",-6.1479779,53.450694,"Food"
"0bbef3ee5fb3fb79.jpg","Plant",97.44367980957,7,"Midleton","Ireland",-8.1722173,51.9138694,"Nature"
"0bbef3ee5fb3fb79.jpg","Food",92.294464111328,7,"Midleton","Ireland",-8.1722173,51.9138694,"Food"
"0bbef3ee5fb3fb79.jpg","Seasoning",92.294464111328,7,"Midleton","Ireland",-8.1722173,51.9138694,"Food"
"0bbef3ee5fb3fb79.jpg","Produce",90.105567932129,7,"Midleton","Ireland",-8.1722173,51.9138694,"Food"
"0bbef3ee5fb3fb79.jpg","Vegetable",83.225639343262,7,"Midleton","Ireland",-8.1722173,51.9138694,"Food"
"0a307a7fcaa40ebd.jpg","Meal",99.093887329102,7,"Upton","United Kingdom",-0.7009333,53.3723602,"Food"
"0a307a7fcaa40ebd.jpg","Dish",99.093887329102,7,"Upton","United Kingdom",-0.7009333,53.3723602,"Food"
"0a307a7fcaa40ebd.jpg","Food",99.093887329102,7,"Upton","United Kingdom",-0.7009333,53.3723602,"Food"
"0a307a7fcaa40ebd.jpg","Stew",95.04776763916,7,"Upton","United Kingdom",-0.7009333,53.3723602,"Food"
"0a307a7fcaa40ebd.jpg","Plant",95.044555664062,7,"Upton","United Kingdom",-0.7009333,53.3723602,"Nature"
"0a307a7fcaa40ebd.jpg","Bowl",91.926635742188,7,"Upton","United Kingdom",-0.7009333,53.3723602,"Food"
"0a307a7fcaa40ebd.jpg","Pizza",83.595153808594,7,"Upton","United Kingdom",-0.7009333,53.3723602,"Food"
"0a307a7fcaa40ebd.jpg","Produce",79.25358581543,7,"Upton","United Kingdom",-0.7009333,53.3723602,"Food"
"0a307a7fcaa40ebd.jpg","Vegetable",76.413757324219,7,"Upton","United Kingdom",-0.7009333,53.3723602,"Food"
"0a307a7fcaa40ebd.jpg","Bean",76.306282043457,7,"Upton","United Kingdom",-0.7009333,53.3723602,"Food"
"0bb8df5347de3037.jpg","Food",93.157356262207,7,"Raphoe","Ireland",-8.2755058,52.2627273,"Food"
"0bb8df5347de3037.jpg","Steak",83.170783996582,7,"Raphoe","Ireland",-8.2755058,52.2627273,"Food"
"0bb8df5347de3037.jpg","Ribs",76.430541992188,7,"Raphoe","Ireland",-8.2755058,52.2627273,"Food"
"00d707ca12ebff5a.jpg","Food",98.208152770996,7,"Athy","Ireland",-6.9858993,53.0018699,"Food"
"00d707ca12ebff5a.jpg","Dish",98.208152770996,7,"Athy","Ireland",-6.9858993,53.0018699,"Food"
"00d707ca12ebff5a.jpg","Meal",98.208152770996,7,"Athy","Ireland",-6.9858993,53.0018699,"Food"
"00d707ca12ebff5a.jpg","Bowl",96.283683776855,7,"Athy","Ireland",-6.9858993,53.0018699,"Food"
"00d707ca12ebff5a.jpg","Burger",83.861785888672,7,"Athy","Ireland",-6.9858993,53.0018699,"Food"
"00d707ca12ebff5a.jpg","Cutlery",83.813720703125,7,"Athy","Ireland",-6.9858993,53.0018699,"Food"
"00d707ca12ebff5a.jpg","Spoon",83.813720703125,7,"Athy","Ireland",-6.9858993,53.0018699,"Food"
"00d707ca12ebff5a.jpg","Lunch",76.695007324219,7,"Athy","Ireland",-6.9858993,53.0018699,"Food"
"00d707ca12ebff5a.jpg","Egg",73.467964172363,7,"Athy","Ireland",-6.9858993,53.0018699,"Food"
"00d707ca12ebff5a.jpg","Plant",70.195320129395,7,"Athy","Ireland",-6.9858993,53.0018699,"Nature"
"00bc9b1755666e9f.jpg","Dish",99.50178527832,7,"Dromiskin","Ireland",-6.4008792,53.9215606,"Food"
"00bc9b1755666e9f.jpg","Meal",99.50178527832,7,"Dromiskin","Ireland",-6.4008792,53.9215606,"Food"
"00bc9b1755666e9f.jpg","Food",99.50178527832,7,"Dromiskin","Ireland",-6.4008792,53.9215606,"Food"
"00bc9b1755666e9f.jpg","Noodle",96.313491821289,7,"Dromiskin","Ireland",-6.4008792,53.9215606,"Food"
"00bc9b1755666e9f.jpg","Pasta",96.313491821289,7,"Dromiskin","Ireland",-6.4008792,53.9215606,"Food"
"00bc9b1755666e9f.jpg","Bowl",92.721557617188,7,"Dromiskin","Ireland",-6.4008792,53.9215606,"Food"
"0b1d64fd0def63a5.jpg","Food",99.823722839355,7,"Gort","Ireland",-8.9791425,52.8638391,"Food"
"0b1d64fd0def63a5.jpg","Bread",99.823722839355,7,"Gort","Ireland",-8.9791425,52.8638391,"Food"
"0b1d64fd0def63a5.jpg","Cornbread",91.914276123047,7,"Gort","Ireland",-8.9791425,52.8638391,"Food"
"0b1d64fd0def63a5.jpg","Pancake",75.33910369873,7,"Gort","Ireland",-8.9791425,52.8638391,"Food"
"0b1d64fd0def63a5.jpg","Pita",71.144927978516,7,"Gort","Ireland",-8.9791425,52.8638391,"Food"
"0c8ee018bf618ca7.jpg","Food",99.776916503906,8,"Nenagh","Ireland",-8.2001004,52.86326,"Food"
"0c8ee018bf618ca7.jpg","Burger",99.776916503906,8,"Nenagh","Ireland",-8.2001004,52.86326,"Food"
"0c8ee018bf618ca7.jpg","Egg",79.939819335938,8,"Nenagh","Ireland",-8.2001004,52.86326,"Food"
"0d4fe6fb4e596015.jpg","Glass",98.900634765625,8,"Naas","Ireland",-6.67045,53.213319,"Food"
"0d4fe6fb4e596015.jpg","Wine",97.66081237793,8,"Naas","Ireland",-6.67045,53.213319,"Food"
"0d4fe6fb4e596015.jpg","Beverage",97.66081237793,8,"Naas","Ireland",-6.67045,53.213319,"Food"
"0d4fe6fb4e596015.jpg","Alcohol",97.66081237793,8,"Naas","Ireland",-6.67045,53.213319,"Food"
"0d4fe6fb4e596015.jpg","Plant",93.72827911377,8,"Naas","Ireland",-6.67045,53.213319,"Nature"
"0d4fe6fb4e596015.jpg","Person",93.630661010742,8,"Naas","Ireland",-6.67045,53.213319,"none"
"0d4fe6fb4e596015.jpg","Wine Glass",91.750862121582,8,"Naas","Ireland",-6.67045,53.213319,"Food"
"0d4fe6fb4e596015.jpg","Flower",89.504188537598,8,"Naas","Ireland",-6.67045,53.213319,"Nature"
"0d4fe6fb4e596015.jpg","Red Wine",77.769477844238,8,"Naas","Ireland",-6.67045,53.213319,"Food"
"0d4fe6fb4e596015.jpg","Bottle",73.604606628418,8,"Naas","Ireland",-6.67045,53.213319,"Food"
"0bebebf48acb4376.jpg","Plant",89.175605773926,8,"Moville","Ireland",-8.4242597,51.8910459,"Nature"
"0bebebf48acb4376.jpg","Food",89.029312133789,8,"Moville","Ireland",-8.4242597,51.8910459,"Food"
"0bebebf48acb4376.jpg","Meal",88.942283630371,8,"Moville","Ireland",-8.4242597,51.8910459,"Food"
"0bebebf48acb4376.jpg","Dish",88.942283630371,8,"Moville","Ireland",-8.4242597,51.8910459,"Food"
"0bebebf48acb4376.jpg","Pasta",74.012176513672,8,"Moville","Ireland",-8.4242597,51.8910459,"Food"
"0bebebf48acb4376.jpg","Noodle",74.012176513672,8,"Moville","Ireland",-8.4242597,51.8910459,"Food"
"0bebebf48acb4376.jpg","Sprout",73.167434692383,8,"Moville","Ireland",-8.4242597,51.8910459,"Food"
"0bebebf48acb4376.jpg","Seasoning",71.597152709961,8,"Moville","Ireland",-8.4242597,51.8910459,"Food"
"0c0f3cde17d19338.jpg","Food",93.442176818848,8,"Kinnegad","Ireland",-9.1327273,53.806868,"Food"
"0c0f3cde17d19338.jpg","Fries",93.261100769043,8,"Kinnegad","Ireland",-9.1327273,53.806868,"Food"
"0c0f3cde17d19338.jpg","Plant",88.860679626465,8,"Kinnegad","Ireland",-9.1327273,53.806868,"Nature"
"0c0f3cde17d19338.jpg","Sprout",74.700271606445,8,"Kinnegad","Ireland",-9.1327273,53.806868,"Food"
"0c0f3cde17d19338.jpg","Produce",72.750961303711,8,"Kinnegad","Ireland",-9.1327273,53.806868,"Food"
"0c5af399a690398d.jpg","Food",94.931686401367,8,"Clifden","Ireland",-10.022186,53.488087,"Food"
"0be4786e4b22731a.jpg","Bread",99.900093078613,8,"Athy","Ireland",-6.9858993,53.0018699,"Food"
"0be4786e4b22731a.jpg","Food",99.900093078613,8,"Athy","Ireland",-6.9858993,53.0018699,"Food"
"0be4786e4b22731a.jpg","Plant",97.050048828125,8,"Athy","Ireland",-6.9858993,53.0018699,"Nature"
"0be4786e4b22731a.jpg","Produce",92.876335144043,8,"Athy","Ireland",-6.9858993,53.0018699,"Food"
"0be4786e4b22731a.jpg","Pizza",88.933258056641,8,"Athy","Ireland",-6.9858993,53.0018699,"Food"
"0be4786e4b22731a.jpg","Dish",86.08699798584,8,"Athy","Ireland",-6.9858993,53.0018699,"Food"
"0be4786e4b22731a.jpg","Meal",86.08699798584,8,"Athy","Ireland",-6.9858993,53.0018699,"Food"
"0be4786e4b22731a.jpg","Vegetable",78.357452392578,8,"Athy","Ireland",-6.9858993,53.0018699,"Food"
"0be4786e4b22731a.jpg","Lentil",73.824165344238,8,"Athy","Ireland",-6.9858993,53.0018699,"Food"
"0be4786e4b22731a.jpg","Bean",73.824165344238,8,"Athy","Ireland",-6.9858993,53.0018699,"Food"
"0c111491937b45ca.jpg","Plant",94.867538452148,8,"Lucan","Ireland",-9.4904891,52.6396679,"Nature"
"0c111491937b45ca.jpg","Meal",92.826301574707,8,"Lucan","Ireland",-9.4904891,52.6396679,"Food"
"0c111491937b45ca.jpg","Food",92.826301574707,8,"Lucan","Ireland",-9.4904891,52.6396679,"Food"
"0c111491937b45ca.jpg","Dish",86.639656066895,8,"Lucan","Ireland",-9.4904891,52.6396679,"Food"
"0c111491937b45ca.jpg","Burger",83.627807617188,8,"Lucan","Ireland",-9.4904891,52.6396679,"Food"
"0c111491937b45ca.jpg","Produce",77.606704711914,8,"Lucan","Ireland",-9.4904891,52.6396679,"Food"
"0c111491937b45ca.jpg","Vegetable",77.534027099609,8,"Lucan","Ireland",-9.4904891,52.6396679,"Food"
"0c65a92b784a8e6c.jpg","Bowl",98.943328857422,8,"Crumlin","Ireland",-6.3048641,53.3284298,"Food"
"0c65a92b784a8e6c.jpg","Cutlery",94.802185058594,8,"Crumlin","Ireland",-6.3048641,53.3284298,"Food"
"0c65a92b784a8e6c.jpg","Fork",94.802185058594,8,"Crumlin","Ireland",-6.3048641,53.3284298,"Food"
"0c65a92b784a8e6c.jpg","Plant",82.143737792969,8,"Crumlin","Ireland",-6.3048641,53.3284298,"Nature"
"0c237900f4a2e85b.jpg","Plant",99.840629577637,8,"Ashbourne","Ireland",-6.1215213,53.2724538,"Nature"
"0c237900f4a2e85b.jpg","Food",95.453437805176,8,"Ashbourne","Ireland",-6.1215213,53.2724538,"Food"
"0c237900f4a2e85b.jpg","Vegetable",95.453437805176,8,"Ashbourne","Ireland",-6.1215213,53.2724538,"Food"
"0c237900f4a2e85b.jpg","Garlic",79.491714477539,8,"Ashbourne","Ireland",-6.1215213,53.2724538,"Food"
"0cef58212facf8b4.jpg","Burrito",99.740272521973,8,"Stapleford","United Kingdom",-0.687802,53.10672,"Food"
"0cef58212facf8b4.jpg","Food",99.740272521973,8,"Stapleford","United Kingdom",-0.687802,53.10672,"Food"
"0cef58212facf8b4.jpg","Bread",80.159111022949,8,"Stapleford","United Kingdom",-0.687802,53.10672,"Food"
"0be05cfdb62c6cd6.jpg","Food",89.608238220215,8,"Leeds","United Kingdom",-1.56285,53.8145,"Food"
"0be05cfdb62c6cd6.jpg","Dessert",82.402626037598,8,"Leeds","United Kingdom",-1.56285,53.8145,"Food"
"0be05cfdb62c6cd6.jpg","Cake",82.402626037598,8,"Leeds","United Kingdom",-1.56285,53.8145,"Food"
"0be05cfdb62c6cd6.jpg","Plant",71.073310852051,8,"Leeds","United Kingdom",-1.56285,53.8145,"Nature"
"0be05cfdb62c6cd6.jpg","Birthday Cake",71.018280029297,8,"Leeds","United Kingdom",-1.56285,53.8145,"Food"
"0cfd3d79d163c6ee.jpg","Egg",97.66007232666,8,"Castlebellingham","Ireland",-6.391149,53.8996586,"Food"
"0cfd3d79d163c6ee.jpg","Food",97.66007232666,8,"Castlebellingham","Ireland",-6.391149,53.8996586,"Food"
"0cfd3d79d163c6ee.jpg","Plant",97.379302978516,8,"Castlebellingham","Ireland",-6.391149,53.8996586,"Nature"
"0cfd3d79d163c6ee.jpg","Meal",92.99137878418,8,"Castlebellingham","Ireland",-6.391149,53.8996586,"Food"
"0cfd3d79d163c6ee.jpg","Dish",92.99137878418,8,"Castlebellingham","Ireland",-6.391149,53.8996586,"Food"
"0cfd3d79d163c6ee.jpg","Fruit",80.468620300293,8,"Castlebellingham","Ireland",-6.391149,53.8996586,"Food"
